#dP2020  7  8  0  0  0.00000000      97 __u+U IGS14 FIT  IAC
## 2113 259200.00000000   900.00000000 59038 0.0000000000000
+  121   C01C02C03C04C05C06C07C08C09C10C11C12C13C14C16C19C20
+        C21C22C23C24C25C26C27C28C29C30C32C33C34C35C36C37C38
+        C39C40C43C44C45C46E01E02E03E04E05E07E08E09E11E12E13
+        E14E15E18E19E21E24E25E26E27E30E31E33E36G01G02G03G04
+        G05G06G07G08G09G10G11G12G13G14G15G16G17G18G19G20G21
+        G22G24G25G26G27G28G29G30G31G32J01J02J03J07R01R02R03
+        R04R05R07R08R09R11R12R13R14R15R16R17R18R19R20R21R23
+        R24R26  0  0  0  0  0  0  0  0  0  0  0  0  0  0  0
++         0  0  0  0  0  0  0  0  0  0  0  0  0  0  0  0  0
++         0  0  0  0  0  0  0  0  0  0  0  0  0  0  0  0  0
++         0  0  0  0  0  0  0  0  0  0  0  0  0  0  0  0  0
++         0  0  0  0  0  0  0  0  0  0  0  0  0  0  0  0  0
++         0  0  0  0  0  0  0  0  0  0  0  0  0  0  0  0  0
++         0  0  0  0  0  0  0  0  0  0  0  0  0  0  0  0  0
++         0  0  0  0  0  0  0  0  0  0  0  0  0  0  0  0  0
++         0  0  0  0  0  0  0  0  0  0  0  0  0  0  0  0  0
%c M  cc GPS ccc cccc cccc cccc cccc ccccc ccccc ccccc ccccc
%c cc cc ccc ccc cccc cccc cccc cccc ccccc ccccc ccccc ccccc
%f  1.2500000  1.025000000  0.00000000000  0.000000000000000
%f  0.0000000  0.000000000  0.00000000000  0.000000000000000
%i    0    0    0    0      0      0      0      0         0
%i    0    0    0    0      0      0      0      0         0
/* INFORMATION & ANALYSIS CENTER (IAC)            FINAL DATA
/* S/V CLOCKS ARE ALIGNED TO GNSS TIME                      
/* G:C1WC2W R:C1PC2P E:C1XC5X C:C2IC6I J:C1CC2S             
/* PCV:IGS14_2113 OL/AL:FES2004  NONE     YN ORB:CoN CLK:CoN
*  2020 07 08 12 15  0.00000000
PC01 -34313.834490  24468.268191   -478.962911   -345.790065
PC02      0.000000      0.000000      0.000000 999999.999999
PC03 -14824.802353  39501.754413    456.154105    834.340282
PC04 -39638.783060  14394.244915   -424.594420   -118.898205
PC05  21916.426263  36019.902289   1112.811925   -594.535814
PC06  -7590.334603  34057.178188  24388.383059    774.953002
PC07 -17415.341861  22585.028647 -30988.373608    -17.476844
PC08 -22538.804382  34286.612781   9036.446278   -361.241097
PC09   2608.923396  40737.507392  11601.322837    662.404658
PC10  -1528.897795  26086.251023 -32872.842000   -242.116402
PC11  15401.099825   1503.793483  23270.195609   -477.715348
PC12  11311.914335  20779.399004  14800.964479    425.090252
PC13 -10622.940203  34583.816214  21525.440683    531.948089
PC14  25885.123588   5205.091354  -8909.274640    638.954944
PC16  -4922.335325  35335.818378  22705.215032   -603.153058
PC19 -22381.095429   2278.784227  16554.247716    468.519927
PC20 -25573.995592 -11178.717573    929.251069   -841.637337
PC21  13529.228346  18520.159455  15899.302210   -629.950264
PC22  -6169.053024  14697.534318  22912.433548   -774.680477
PC23  15050.018011 -20338.991350  11773.564218   -845.561542
PC24  19483.731797   3671.305097 -19643.079092   -770.735013
PC25  24239.015319 -12823.214055  -5219.384138   -678.842569
PC26   4203.150379  16374.718269 -22199.413532    746.986696
PC27  -6237.362184 -26400.319560  -6530.762574    360.788668
PC28   6009.246429 -24930.673698  11013.793645   -200.716285
PC29 -14351.732345   9420.557335 -22011.093079    253.107498
PC30 -15173.743782 -12206.182786 -19986.860245    343.403038
PC32 -13732.746031 -18416.973774 -15834.514513   -875.985042
PC33  22390.576985  -2349.938384 -16465.592010   -801.669068
PC34  15270.444824  11764.402921  20174.822874   -884.124760
PC35  -5309.354513  25037.687253 -11165.061532   -760.006045
PC36 -24571.016787  12066.352584   5482.547786   -863.701090
PC37  -3103.657521 -16838.339172  22061.098266   -865.173607
PC38 -20465.727183  35293.834937  10346.381652     87.753725
PC39  -1955.922291  35856.900269  22186.301349     18.874153
PC40  -8328.658623  20669.522091 -35795.907990     59.636253
PC43  14602.428676  -8979.422256  22007.638692   -273.059000
PC44   6987.335125  26290.266646   6289.393673   -312.918613
PC45 -15031.104678  20327.359242 -11792.889248    174.651457
PC46 -19761.524081  -3093.713423  19463.193148    746.574166
PE01  12447.315553 -16391.910055  21274.503805   -893.965697
PE02 -12345.316020  16405.024887 -21318.149491    145.858439
PE03  -2132.061073  20823.565301  20928.001227   -318.336938
PE04 -14545.420419 -24961.290190  -6444.923764   -561.623358
PE05 -17738.438761   4425.749469  23288.618448   -365.017388
PE07  22860.976738  14432.724729 -12024.729910   -406.139323
PE08  14866.373767  24804.223354   6287.143087   6152.637615
PE09 -22922.665971 -14250.431707  12183.598279   6003.374050
PE11 -15183.913310  -5898.718257 -24726.520050   3966.471725
PE12  -3072.358490 -24063.338501 -16954.243223   5716.670292
PE13  15020.177278   6097.014396  24765.030015    402.165529
PE14 -18616.889979   8918.753957 -25045.194614  -1076.951686
PE15   3259.130678  23920.954961  17129.480251    860.743895
PE18  10370.492783 -12785.026255  17171.840011  -1179.486723
PE19   3912.419158 -19468.482973 -21940.910071     22.533746
PE21  27425.914736  -8974.011929   6579.416559   -608.937348
PE24 -26505.122015  -4231.088024  12456.789764   5361.787070
PE25 -27492.764415   8887.695192  -6435.347072   -513.311857
PE26  18112.219372 -15602.721571  17454.981872   2983.771761
PE27  26678.748606   3868.687242 -12218.234370    181.906125
PE30   9742.083704  14624.518589 -23825.829240   3763.955329
PE31 -10268.755443 -14381.805004  23757.034014   -473.150914
PE33  10421.252211 -27695.905526    572.148186   -465.175301
PE36 -17966.794105  15312.960370 -17861.223746    536.825496
PG01  14505.913914 -21980.775899  -1684.667747     22.935481
PG02 -18547.539394   8132.733677 -16522.546544   -484.114579
PG03  12209.038363 -12662.955026 -19939.578570   -233.350024
PG04   3294.301381 -20987.366646 -15907.953691   -112.183979
PG05 -26023.150289   2116.190281   5278.369534    -16.225512
PG06 -14108.848964  -5379.456947 -21802.738279   -300.185214
PG07    573.108055 -20781.268279  16556.669983   -322.475420
PG08  10979.991848 -11151.247875  21434.178226    -40.256972
PG09  -6754.520084 -24863.552077  -6467.116158   -250.039599
PG10  19282.570798  11703.684553  14301.651874   -393.742494
PG11  12190.292337 -20404.982164  11687.098948   -226.956927
PG12 -13012.673735  11630.713689 -20209.583302     96.396576
PG13 -14979.835698   2200.152713  21709.794716     24.946217
PG14  16553.713604  13226.632044 -15775.449486     -0.192996
PG15 -10132.296817  12963.054554  20471.104204   -218.958424
PG16  25487.348727   -735.816466   7996.951934   -180.117381
PG17 -14300.731244 -20368.650232  -8917.590229    292.757147
PG18  -1372.895664  20819.794753  16405.835126    240.984850
PG19 -16097.625273 -14065.214193 -16091.668829   -134.806764
PG20   8321.626975  14757.099180  20423.557416    527.344650
PG21  12095.318072  10265.547283  22092.683221     21.175047
PG22  19200.007837 -10708.034561 -14596.988768   -773.411322
PG24 -14508.178325  21973.723174    962.652719    -15.362424
PG25  -1254.461737  15175.151104 -22001.080879     21.046798
PG26  25682.586059   5188.546828  -5067.448706    239.606577
PG27  16029.433487    876.013484  21077.536605   -340.572735
PG28 -19065.418348 -12972.834188  13624.017039    701.534916
PG29   1782.045692  24368.303812 -10416.642025   -145.596138
PG30  -8665.213239 -13919.876985  20907.344428   -257.792262
PG31  15751.377883   3845.488377 -21151.947966    -54.234588
PG32  16243.720327  18722.853569  -9659.654702    313.554224
PJ01 -27295.097821  21359.795461  29101.674424   -274.193597
PJ02 -36114.600060  18504.418680  -7024.835971     -1.094483
PJ03 -18223.239540  29392.322898 -19616.143762     -5.039447
PJ07 -25401.809396  33658.238391     31.760301      0.001827
PR01  10760.362995  16807.064217  15881.989680     64.233836
PR02  21451.760327  13171.045584  -4257.534807    435.290522
PR03  17062.578865   1229.468497 -18896.026090     18.159962
PR04   2846.911517 -11120.113120 -22749.291108     55.539080
PR05 -12817.630063 -17254.655539 -13705.727579     53.714253
PR07 -16641.804950   -683.155647  19344.007984    -38.273578
PR08  -2940.056446  11247.214543  22763.067128    -53.337640
PR09 -20913.598808   1687.201384  14576.843260    142.282893
PR11 -14207.081297  14631.852975 -15338.478917    -29.810246
PR12   2388.954726  10850.214190 -22930.470495    145.434809
PR13  18358.198796    760.124539 -17702.059402    -40.967256
PR14  23528.253781  -9660.091480  -1786.445152     53.116214
PR15  14978.988421 -14420.689588  14796.364524    106.925179
PR16  -3204.162058 -10746.576526  22897.012971     -4.559071
PR17  10750.719507  -8859.454816  21379.107206    339.505722
PR18   6827.746536 -22625.880772   9538.554331     41.546423
PR19    138.225138 -24532.145810  -7004.683357   -101.424893
PR20  -8178.181553 -10996.975007 -21503.354531   -416.202683
PR21 -10623.668167   9790.018670 -21021.754642   -136.682582
PR23   3569.762849  21431.082988  13350.567360    317.294027
PR24   8917.244369  10279.323942  21581.032729      5.514456
PR26  -6804.164043 -15603.593860 -19002.745486   -365.369299
EOF
